{"fetched_at":"2026-07-18T17:29:33.240Z","source":"https://celestrak.org/NORAD/elements/gp.php?GROUP=planet&FORMAT=JSON","constellation":"superdove","records":[{"OBJECT_NAME":"FLOCK 4H-34","OBJECT_ID":"2025-276BZ","EPOCH":"2026-07-18T04:16:20.368992","CLASSIFICATION_TYPE":"U","MEAN_MOTION":15.20862272,"ECCENTRICITY":0.00028835,"INCLINATION":97.4225,"RA_OF_ASC_NODE":272.5463,"ARG_OF_PERICENTER":162.3014,"MEAN_ANOMALY":197.8323,"EPHEMERIS_TYPE":0,"NORAD_CAT_ID":66737,"ELEMENT_SET_NO":999,"REV_AT_EPOCH":3439,"BSTAR":0.00016677104,"MEAN_MOTION_DOT":0.00003614,"MEAN_MOTION_DDOT":0},{"OBJECT_NAME":"FLOCK 4H-35","OBJECT_ID":"2025-276CA","EPOCH":"2026-07-18T03:41:05.304768","CLASSIFICATION_TYPE":"U","MEAN_MOTION":15.2097586,"ECCENTRICITY":0.00028373,"INCLINATION":97.4182,"RA_OF_ASC_NODE":272.4591,"ARG_OF_PERICENTER":146.289,"MEAN_ANOMALY":213.8526,"EPHEMERIS_TYPE":0,"NORAD_CAT_ID":66738,"ELEMENT_SET_NO":999,"REV_AT_EPOCH":3443,"BSTAR":0.00016687139,"MEAN_MOTION_DOT":0.00003629,"MEAN_MOTION_DDOT":0},{"OBJECT_NAME":"FLOCK 4H-36","OBJECT_ID":"2025-276CB","EPOCH":"2026-07-18T04:37:14.855520","CLASSIFICATION_TYPE":"U","MEAN_MOTION":15.20741178,"ECCENTRICITY":0.00027505,"INCLINATION":97.4231,"RA_OF_ASC_NODE":272.5534,"ARG_OF_PERICENTER":174.1756,"MEAN_ANOMALY":185.9512,"EPHEMERIS_TYPE":0,"NORAD_CAT_ID":66739,"ELEMENT_SET_NO":999,"REV_AT_EPOCH":3514,"BSTAR":0.00015481504,"MEAN_MOTION_DOT":0.00003338,"MEAN_MOTION_DDOT":0}]}
