FLOCK 4H-34             
1 66737U 25276BZ  26199.17801353  .00003614  00000+0  16677-3 0  9999
2 66737  97.4225 272.5463 0002883 162.3014 197.8323 15.20862272 34394
FLOCK 4H-35             
1 66738U 25276CA  26199.15353362  .00003629  00000+0  16687-3 0  9997
2 66738  97.4182 272.4591 0002837 146.2890 213.8526 15.20975860 34437
FLOCK 4H-36             
1 66739U 25276CB  26199.19253305  .00003338  00000+0  15482-3 0  9997
2 66739  97.4231 272.5534 0002750 174.1756 185.9512 15.20741178 35142
